{"type": "FeatureCollection", "features": [ {"type": "Feature", "properties": {"norad_id": 44476, "name": "INTELSAT 39 (IS-39)", "group": "intelsat", "lat": 0.01224851315244335, "lon": 105.21454259339144, "alt_km": 35783.69190065951, "timestamp": "2025-12-26T20:30:45.601195+00:00", "meta": {"OBJECT_NAME": "INTELSAT 39 (IS-39)", "OBJECT_ID": "2019-049B", "EPOCH": "2025-12-26T14:52:53.463936", "MEAN_MOTION": 1.00270911, "ECCENTRICITY": 9.892e-05, "INCLINATION": 0.0017, "RA_OF_ASC_NODE": 65.4479, "ARG_OF_PERICENTER": 90.9153, "MEAN_ANOMALY": 224.1696, "EPHEMERIS_TYPE": 0, "CLASSIFICATION_TYPE": "U", "NORAD_CAT_ID": 44476, "ELEMENT_SET_NO": 999, "REV_AT_EPOCH": 2339, "BSTAR": 0, "MEAN_MOTION_DOT": 5.6e-07, "MEAN_MOTION_DDOT": 0}, "tle": {"line1": "1 44476U 19049B   25360.62006324  .00000056  00000+0  00000+0 0  9996", "line2": "2 44476   0.0017  65.4479 0000989  90.9153 224.1696  1.00270911 23391"}}, "geometry": {"type": "Point", "coordinates": [105.21454259339144, 0.01224851315244335]}}, {"type": "Feature", "properties": {"norad_id": 46114, "name": "GALAXY 30 (G-30)", "group": "intelsat", "lat": -0.01647858023987768, "lon": -81.7250865207868, "alt_km": 35776.16905331819, "timestamp": "2025-12-26T20:30:45.601206+00:00", "meta": {"OBJECT_NAME": "GALAXY 30 (G-30)", "OBJECT_ID": "2020-056C", "EPOCH": "2025-12-26T13:07:40.744704", "MEAN_MOTION": 1.0027099, "ECCENTRICITY": 0.00023924, "INCLINATION": 0.0083, "RA_OF_ASC_NODE": 313.2553, "ARG_OF_PERICENTER": 322.9444, "MEAN_ANOMALY": 251.0088, "EPHEMERIS_TYPE": 0, "CLASSIFICATION_TYPE": "U", "NORAD_CAT_ID": 46114, "ELEMENT_SET_NO": 999, "REV_AT_EPOCH": 1956, "BSTAR": 0, "MEAN_MOTION_DOT": 5.9e-07, "MEAN_MOTION_DDOT": 0}, "tle": {"line1": "1 46114U 20056C   25360.54699936  .00000059  00000+0  00000+0 0  9998", "line2": "2 46114   0.0083 313.2553 0002392 322.9444 251.0088  1.00270990 19568"}}, "geometry": {"type": "Point", "coordinates": [-81.7250865207868, -0.01647858023987768]}}, {"type": "Feature", "properties": {"norad_id": 54026, "name": "GALAXY 33 (G-33)", "group": "intelsat", "lat": -0.018517563150768482, "lon": -89.70678135056235, "alt_km": 35778.81059734455, "timestamp": "2025-12-26T20:30:45.601216+00:00", "meta": {"OBJECT_NAME": "GALAXY 33 (G-33)", "OBJECT_ID": "2022-128A", "EPOCH": "2025-12-24T04:31:51.326400", "MEAN_MOTION": 1.00272122, "ECCENTRICITY": 0.0001643, "INCLINATION": 0.0126, "RA_OF_ASC_NODE": 315.9231, "ARG_OF_PERICENTER": 309.5058, "MEAN_ANOMALY": 122.5078, "EPHEMERIS_TYPE": 0, "CLASSIFICATION_TYPE": "U", "NORAD_CAT_ID": 54026, "ELEMENT_SET_NO": 999, "REV_AT_EPOCH": 1198, "BSTAR": 0, "MEAN_MOTION_DOT": 1e-06, "MEAN_MOTION_DDOT": 0}, "tle": {"line1": "1 54026U 22128A   25358.18878850  .00000100  00000+0  00000+0 0  9999", "line2": "2 54026   0.0126 315.9231 0001643 309.5058 122.5078  1.00272122 11987"}}, "geometry": {"type": "Point", "coordinates": [-89.70678135056235, -0.018517563150768482]}}, {"type": "Feature", "properties": {"norad_id": 54027, "name": "GALAXY 34 (G-34)", "group": "intelsat", "lat": -0.04163709037301823, "lon": -85.67816476987655, "alt_km": 35779.32012778476, "timestamp": "2025-12-26T20:30:45.601227+00:00", "meta": {"OBJECT_NAME": "GALAXY 34 (G-34)", "OBJECT_ID": "2022-128B", "EPOCH": "2025-12-26T14:07:54.334848", "MEAN_MOTION": 1.00270399, "ECCENTRICITY": 0.00016972, "INCLINATION": 0.023, "RA_OF_ASC_NODE": 14.3298, "ARG_OF_PERICENTER": 253.4299, "MEAN_ANOMALY": 270.5928, "EPHEMERIS_TYPE": 0, "CLASSIFICATION_TYPE": "U", "NORAD_CAT_ID": 54027, "ELEMENT_SET_NO": 999, "REV_AT_EPOCH": 1218, "BSTAR": 0, "MEAN_MOTION_DOT": 0, "MEAN_MOTION_DDOT": 0}, "tle": {"line1": "1 54027U 22128B   25360.58882332  .00000000  00000+0  00000+0 0  9996", "line2": "2 54027   0.0230  14.3298 0001697 253.4299 270.5928  1.00270399 12185"}}, "geometry": {"type": "Point", "coordinates": [-85.67816476987655, -0.04163709037301823]}}, {"type": "Feature", "properties": {"norad_id": 54243, "name": "GALAXY 31 (G-31)", "group": "intelsat", "lat": -0.028177711066392514, "lon": -77.73742375555184, "alt_km": 35778.898547306235, "timestamp": "2025-12-26T20:30:45.601237+00:00", "meta": {"OBJECT_NAME": "GALAXY 31 (G-31)", "OBJECT_ID": "2022-153A", "EPOCH": "2025-12-26T13:10:42.273696", "MEAN_MOTION": 1.00270334, "ECCENTRICITY": 0.00017947, "INCLINATION": 0.0091, "RA_OF_ASC_NODE": 8.6381, "ARG_OF_PERICENTER": 277.034, "MEAN_ANOMALY": 246.2854, "EPHEMERIS_TYPE": 0, "CLASSIFICATION_TYPE": "U", "NORAD_CAT_ID": 54243, "ELEMENT_SET_NO": 999, "REV_AT_EPOCH": 540, "BSTAR": 0, "MEAN_MOTION_DOT": 0, "MEAN_MOTION_DDOT": 0}, "tle": {"line1": "1 54243U 22153A   25360.54910039  .00000000  00000+0  00000+0 0  9996", "line2": "2 54243   0.0091   8.6381 0001794 277.0340 246.2854  1.00270334  5400"}}, "geometry": {"type": "Point", "coordinates": [-77.73742375555184, -0.028177711066392514]}}, {"type": "Feature", "properties": {"norad_id": 54244, "name": "GALAXY 32 (G-32)", "group": "intelsat", "lat": -0.02657318460299981, "lon": -47.71820819109372, "alt_km": 35777.59061967416, "timestamp": "2025-12-26T20:30:45.601247+00:00", "meta": {"OBJECT_NAME": "GALAXY 32 (G-32)", "OBJECT_ID": "2022-153B", "EPOCH": "2025-12-24T22:56:22.028928", "MEAN_MOTION": 1.00272509, "ECCENTRICITY": 0.0001992, "INCLINATION": 0.0091, "RA_OF_ASC_NODE": 20.8495, "ARG_OF_PERICENTER": 295.2988, "MEAN_ANOMALY": 30.6679, "EPHEMERIS_TYPE": 0, "CLASSIFICATION_TYPE": "U", "NORAD_CAT_ID": 54244, "ELEMENT_SET_NO": 999, "REV_AT_EPOCH": 1139, "BSTAR": 0, "MEAN_MOTION_DOT": -1.53e-06, "MEAN_MOTION_DDOT": 0}, "tle": {"line1": "1 54244U 22153B   25358.95581052 -.00000153  00000+0  00000+0 0  9998", "line2": "2 54244   0.0091  20.8495 0001992 295.2988  30.6679  1.00272509 11394"}}, "geometry": {"type": "Point", "coordinates": [-47.71820819109372, -0.02657318460299981]}}, {"type": "Feature", "properties": {"norad_id": 54741, "name": "GALAXY 35 (G-35)", "group": "intelsat", "lat": -0.00442799775162207, "lon": -49.80470452869692, "alt_km": 35777.82043296421, "timestamp": "2025-12-26T20:30:45.601257+00:00", "meta": {"OBJECT_NAME": "GALAXY 35 (G-35)", "OBJECT_ID": "2022-170A", "EPOCH": "2025-12-26T13:26:41.271360", "MEAN_MOTION": 1.00270726, "ECCENTRICITY": 0.00024134, "INCLINATION": 0.0187, "RA_OF_ASC_NODE": 263.86, "ARG_OF_PERICENTER": 13.4145, "MEAN_ANOMALY": 286.6058, "EPHEMERIS_TYPE": 0, "CLASSIFICATION_TYPE": "U", "NORAD_CAT_ID": 54741, "ELEMENT_SET_NO": 999, "REV_AT_EPOCH": 1116, "BSTAR": 0, "MEAN_MOTION_DOT": -1.4e-06, "MEAN_MOTION_DDOT": 0}, "tle": {"line1": "1 54741U 22170A   25360.56019990 -.00000140  00000+0  00000+0 0  9992", "line2": "2 54741   0.0187 263.8600 0002413  13.4145 286.6058  1.00270726 11161"}}, "geometry": {"type": "Point", "coordinates": [-49.80470452869692, -0.00442799775162207]}}, {"type": "Feature", "properties": {"norad_id": 54742, "name": "GALAXY 36 (G-36)", "group": "intelsat", "lat": -0.020345288308415404, "lon": -45.715383532137004, "alt_km": 35784.39234982967, "timestamp": "2025-12-26T20:30:45.601268+00:00", "meta": {"OBJECT_NAME": "GALAXY 36 (G-36)", "OBJECT_ID": "2022-170B", "EPOCH": "2025-12-26T13:28:40.561248", "MEAN_MOTION": 1.00271744, "ECCENTRICITY": 4.3e-05, "INCLINATION": 0.0211, "RA_OF_ASC_NODE": 101.6024, "ARG_OF_PERICENTER": 230.7236, "MEAN_ANOMALY": 236.1575, "EPHEMERIS_TYPE": 0, "CLASSIFICATION_TYPE": "U", "NORAD_CAT_ID": 54742, "ELEMENT_SET_NO": 999, "REV_AT_EPOCH": 1104, "BSTAR": 0, "MEAN_MOTION_DOT": -1.63e-06, "MEAN_MOTION_DDOT": 0}, "tle": {"line1": "1 54742U 22170B   25360.56158057 -.00000163  00000+0  00000+0 0  9996", "line2": "2 54742   0.0211 101.6024 0000430 230.7236 236.1575  1.00271744 11043"}}, "geometry": {"type": "Point", "coordinates": [-45.715383532137004, -0.020345288308415404]}}, {"type": "Feature", "properties": {"norad_id": 57493, "name": "GALAXY 37 (G-37)", "group": "intelsat", "lat": -0.025982418060069547, "lon": -83.73171068246099, "alt_km": 35776.812141224174, "timestamp": "2025-12-26T20:30:45.601278+00:00", "meta": {"OBJECT_NAME": "GALAXY 37 (G-37)", "OBJECT_ID": "2023-112A", "EPOCH": "2025-12-26T13:06:41.864832", "MEAN_MOTION": 1.00271893, "ECCENTRICITY": 0.00021814, "INCLINATION": 0.0115, "RA_OF_ASC_NODE": 41.4613, "ARG_OF_PERICENTER": 237.4973, "MEAN_ANOMALY": 245.9984, "EPHEMERIS_TYPE": 0, "CLASSIFICATION_TYPE": "U", "NORAD_CAT_ID": 57493, "ELEMENT_SET_NO": 999, "REV_AT_EPOCH": 881, "BSTAR": 0, "MEAN_MOTION_DOT": 7e-07, "MEAN_MOTION_DDOT": 0}, "tle": {"line1": "1 57493U 23112A   25360.54631788  .00000070  00000+0  00000+0 0  9990", "line2": "2 57493   0.0115  41.4613 0002181 237.4973 245.9984  1.00271893  8812"}}, "geometry": {"type": "Point", "coordinates": [-83.73171068246099, -0.025982418060069547]}}]}